SOYUZ-MS 28             
1 66664U 25275A   26070.44931709  .00009201  00000+0  17741-3 0  9995
2 66664  51.6324  63.6561 0007999 180.7735 179.3242 15.48580657556624
DUPLEX                  
1 66906U 98067XS  26070.51254446  .00040984  00000+0  57411-3 0  9998
2 66906  51.6291  60.3322 0002563 120.8147 239.3097 15.56362419 15414
ISS OBJECT XT           
1 66907U 98067XT  26070.36561692  .00181509  00000+0  14595-2 0  9990
2 66907  51.6250  57.0845 0004717  88.7604 271.3934 15.69844400 15444
ISS OBJECT XU           
1 66908U 98067XU  26070.55463509  .00173925  00000+0  13885-2 0  9994
2 66908  51.6249  56.0925 0004913  92.2997 267.8563 15.70040641 15472
SILVERSAT               
1 66909U 98067XV  26070.23470510  .00236525  00000+0  16574-2 0  9994
2 66909  51.6250  56.9557 0005466  87.1357 273.0267 15.72937624 15436
ISS OBJECT XW           
1 66910U 98067XW  26070.23384303  .00158614  00000+0  13203-2 0  9998
2 66910  51.6252  57.6975 0005316  95.4804 264.6799 15.69081269 15421
ISS OBJECT XX           
1 66911U 98067XX  26070.16517619  .00301388  00000+0  18152-2 0  9995
2 66911  51.6235  56.4689 0007069  92.6185 267.5624 15.76233813 15421
ISS OBJECT XY           
1 66912U 98067XY  26070.69034241  .00103877  00000+0  10662-2 0  9990
2 66912  51.6275  57.0144 0003318 100.2978 259.8391 15.64103776 15468
KNACKSAT-2              
1 67683U 98067XZ  26070.40187308  .00043646  00000+0  71521-3 0  9997
2 67683  51.6310  63.3406 0009486 191.9078 168.1689 15.51979523  5058
GXIBA-1                 
1 67684U 98067YA  26070.37179026  .00087117  00000+0  12821-2 0  9990
2 67684  51.6307  63.1407 0011196 181.3427 178.7536 15.54628792  5056
CORAL                   
1 67685U 98067YB  26070.20390376  .00050529  00000+0  81465-3 0  9994
2 67685  51.6308  64.2697 0011507 187.7901 172.2911 15.52344008  5020
ISS OBJECT YC           
1 67686U 98067YC  26070.39090049  .00061493  00000+0  96875-3 0  9992
2 67686  51.6314  63.2696 0008101 156.7781 203.3577 15.52939033  5059
LEOPARD                 
1 67687U 98067YD  26070.59248516  .00046853  00000+0  76168-3 0  9995
2 67687  51.6321  62.3663 0008002 160.9346 199.1945 15.52183951  5002
ISS OBJECT YE           
1 67688U 98067YE  26070.84421021  .00047880  00000+0  76340-3 0  9991
2 67688  51.6314  61.0480 0007947 158.7007 201.4315 15.52715373  5045
CREW DRAGON 12          
1 67796U 26031A   26070.83651153  .00008338  00000+0  16153-3 0  9994
2 67796  51.6324  61.7417 0007973 182.2925 177.8028 15.48586968556569
