[{"OBJECT_NAME":"SOYUZ-MS 28","OBJECT_ID":"2025-275A","EPOCH":"2026-03-11T10:47:00.996576","MEAN_MOTION":15.48580657,"ECCENTRICITY":0.0007999,"INCLINATION":51.6324,"RA_OF_ASC_NODE":63.6561,"ARG_OF_PERICENTER":180.7735,"MEAN_ANOMALY":179.3242,"EPHEMERIS_TYPE":0,"CLASSIFICATION_TYPE":"U","NORAD_CAT_ID":66664,"ELEMENT_SET_NO":999,"REV_AT_EPOCH":55662,"BSTAR":0.00017741,"MEAN_MOTION_DOT":9.201e-5,"MEAN_MOTION_DDOT":0},{"OBJECT_NAME":"DUPLEX","OBJECT_ID":"1998-067XS","EPOCH":"2026-03-11T12:18:03.841344","MEAN_MOTION":15.56362419,"ECCENTRICITY":0.0002563,"INCLINATION":51.6291,"RA_OF_ASC_NODE":60.3322,"ARG_OF_PERICENTER":120.8147,"MEAN_ANOMALY":239.3097,"EPHEMERIS_TYPE":0,"CLASSIFICATION_TYPE":"U","NORAD_CAT_ID":66906,"ELEMENT_SET_NO":999,"REV_AT_EPOCH":1541,"BSTAR":0.00057411,"MEAN_MOTION_DOT":0.00040984,"MEAN_MOTION_DDOT":0},{"OBJECT_NAME":"ISS OBJECT XT","OBJECT_ID":"1998-067XT","EPOCH":"2026-03-11T08:46:29.301888","MEAN_MOTION":15.698444,"ECCENTRICITY":0.0004717,"INCLINATION":51.625,"RA_OF_ASC_NODE":57.0845,"ARG_OF_PERICENTER":88.7604,"MEAN_ANOMALY":271.3934,"EPHEMERIS_TYPE":0,"CLASSIFICATION_TYPE":"U","NORAD_CAT_ID":66907,"ELEMENT_SET_NO":999,"REV_AT_EPOCH":1544,"BSTAR":0.0014595,"MEAN_MOTION_DOT":0.00181509,"MEAN_MOTION_DDOT":0},{"OBJECT_NAME":"ISS OBJECT XU","OBJECT_ID":"1998-067XU","EPOCH":"2026-03-11T13:18:40.471776","MEAN_MOTION":15.70040641,"ECCENTRICITY":0.0004913,"INCLINATION":51.6249,"RA_OF_ASC_NODE":56.0925,"ARG_OF_PERICENTER":92.2997,"MEAN_ANOMALY":267.8563,"EPHEMERIS_TYPE":0,"CLASSIFICATION_TYPE":"U","NORAD_CAT_ID":66908,"ELEMENT_SET_NO":999,"REV_AT_EPOCH":1547,"BSTAR":0.0013885,"MEAN_MOTION_DOT":0.00173925,"MEAN_MOTION_DDOT":0},{"OBJECT_NAME":"SILVERSAT","OBJECT_ID":"1998-067XV","EPOCH":"2026-03-11T05:37:58.520640","MEAN_MOTION":15.72937624,"ECCENTRICITY":0.0005466,"INCLINATION":51.625,"RA_OF_ASC_NODE":56.9557,"ARG_OF_PERICENTER":87.1357,"MEAN_ANOMALY":273.0267,"EPHEMERIS_TYPE":0,"CLASSIFICATION_TYPE":"U","NORAD_CAT_ID":66909,"ELEMENT_SET_NO":999,"REV_AT_EPOCH":1543,"BSTAR":0.0016574,"MEAN_MOTION_DOT":0.00236525,"MEAN_MOTION_DDOT":0},{"OBJECT_NAME":"ISS OBJECT XW","OBJECT_ID":"1998-067XW","EPOCH":"2026-03-11T05:36:44.037792","MEAN_MOTION":15.69081269,"ECCENTRICITY":0.0005316,"INCLINATION":51.6252,"RA_OF_ASC_NODE":57.6975,"ARG_OF_PERICENTER":95.4804,"MEAN_ANOMALY":264.6799,"EPHEMERIS_TYPE":0,"CLASSIFICATION_TYPE":"U","NORAD_CAT_ID":66910,"ELEMENT_SET_NO":999,"REV_AT_EPOCH":1542,"BSTAR":0.0013203,"MEAN_MOTION_DOT":0.00158614,"MEAN_MOTION_DDOT":0},{"OBJECT_NAME":"ISS OBJECT XX","OBJECT_ID":"1998-067XX","EPOCH":"2026-03-11T03:57:51.222816","MEAN_MOTION":15.76233813,"ECCENTRICITY":0.00070692,"INCLINATION":51.6235,"RA_OF_ASC_NODE":56.4689,"ARG_OF_PERICENTER":92.6185,"MEAN_ANOMALY":267.5624,"EPHEMERIS_TYPE":0,"CLASSIFICATION_TYPE":"U","NORAD_CAT_ID":66911,"ELEMENT_SET_NO":999,"REV_AT_EPOCH":1542,"BSTAR":0.0018152438,"MEAN_MOTION_DOT":0.00301388,"MEAN_MOTION_DDOT":0},{"OBJECT_NAME":"ISS OBJECT XY","OBJECT_ID":"1998-067XY","EPOCH":"2026-03-11T16:34:05.584224","MEAN_MOTION":15.64103776,"ECCENTRICITY":0.0003318,"INCLINATION":51.6275,"RA_OF_ASC_NODE":57.0144,"ARG_OF_PERICENTER":100.2978,"MEAN_ANOMALY":259.8391,"EPHEMERIS_TYPE":0,"CLASSIFICATION_TYPE":"U","NORAD_CAT_ID":66912,"ELEMENT_SET_NO":999,"REV_AT_EPOCH":1546,"BSTAR":0.0010662,"MEAN_MOTION_DOT":0.00103877,"MEAN_MOTION_DDOT":0},{"OBJECT_NAME":"KNACKSAT-2","OBJECT_ID":"1998-067XZ","EPOCH":"2026-03-11T09:38:41.834112","MEAN_MOTION":15.51979523,"ECCENTRICITY":0.0009486,"INCLINATION":51.631,"RA_OF_ASC_NODE":63.3406,"ARG_OF_PERICENTER":191.9078,"MEAN_ANOMALY":168.1689,"EPHEMERIS_TYPE":0,"CLASSIFICATION_TYPE":"U","NORAD_CAT_ID":67683,"ELEMENT_SET_NO":999,"REV_AT_EPOCH":505,"BSTAR":0.00071521,"MEAN_MOTION_DOT":0.00043646,"MEAN_MOTION_DDOT":0},{"OBJECT_NAME":"GXIBA-1","OBJECT_ID":"1998-067YA","EPOCH":"2026-03-11T08:55:22.678464","MEAN_MOTION":15.54628792,"ECCENTRICITY":0.0011196,"INCLINATION":51.6307,"RA_OF_ASC_NODE":63.1407,"ARG_OF_PERICENTER":181.3427,"MEAN_ANOMALY":178.7536,"EPHEMERIS_TYPE":0,"CLASSIFICATION_TYPE":"U","NORAD_CAT_ID":67684,"ELEMENT_SET_NO":999,"REV_AT_EPOCH":505,"BSTAR":0.0012821,"MEAN_MOTION_DOT":0.00087117,"MEAN_MOTION_DDOT":0},{"OBJECT_NAME":"CORAL","OBJECT_ID":"1998-067YB","EPOCH":"2026-03-11T04:53:37.284864","MEAN_MOTION":15.52344008,"ECCENTRICITY":0.0011507,"INCLINATION":51.6308,"RA_OF_ASC_NODE":64.2697,"ARG_OF_PERICENTER":187.7901,"MEAN_ANOMALY":172.2911,"EPHEMERIS_TYPE":0,"CLASSIFICATION_TYPE":"U","NORAD_CAT_ID":67685,"ELEMENT_SET_NO":999,"REV_AT_EPOCH":502,"BSTAR":0.00081465,"MEAN_MOTION_DOT":0.00050529,"MEAN_MOTION_DDOT":0},{"OBJECT_NAME":"ISS OBJECT YC","OBJECT_ID":"1998-067YC","EPOCH":"2026-03-11T09:22:53.802336","MEAN_MOTION":15.52939033,"ECCENTRICITY":0.0008101,"INCLINATION":51.6314,"RA_OF_ASC_NODE":63.2696,"ARG_OF_PERICENTER":156.7781,"MEAN_ANOMALY":203.3577,"EPHEMERIS_TYPE":0,"CLASSIFICATION_TYPE":"U","NORAD_CAT_ID":67686,"ELEMENT_SET_NO":999,"REV_AT_EPOCH":505,"BSTAR":0.00096875,"MEAN_MOTION_DOT":0.00061493,"MEAN_MOTION_DDOT":0},{"OBJECT_NAME":"LEOPARD","OBJECT_ID":"1998-067YD","EPOCH":"2026-03-11T14:13:10.717824","MEAN_MOTION":15.52183951,"ECCENTRICITY":0.0008002,"INCLINATION":51.6321,"RA_OF_ASC_NODE":62.3663,"ARG_OF_PERICENTER":160.9346,"MEAN_ANOMALY":199.1945,"EPHEMERIS_TYPE":0,"CLASSIFICATION_TYPE":"U","NORAD_CAT_ID":67687,"ELEMENT_SET_NO":999,"REV_AT_EPOCH":500,"BSTAR":0.00076168,"MEAN_MOTION_DOT":0.00046853,"MEAN_MOTION_DDOT":0},{"OBJECT_NAME":"ISS OBJECT YE","OBJECT_ID":"1998-067YE","EPOCH":"2026-03-11T20:15:39.762144","MEAN_MOTION":15.52715373,"ECCENTRICITY":0.0007947,"INCLINATION":51.6314,"RA_OF_ASC_NODE":61.048,"ARG_OF_PERICENTER":158.7007,"MEAN_ANOMALY":201.4315,"EPHEMERIS_TYPE":0,"CLASSIFICATION_TYPE":"U","NORAD_CAT_ID":67688,"ELEMENT_SET_NO":999,"REV_AT_EPOCH":504,"BSTAR":0.0007634,"MEAN_MOTION_DOT":0.0004788,"MEAN_MOTION_DDOT":0},{"OBJECT_NAME":"CREW DRAGON 12","OBJECT_ID":"2026-031A","EPOCH":"2026-03-11T20:04:34.596192","MEAN_MOTION":15.48586968,"ECCENTRICITY":0.0007973,"INCLINATION":51.6324,"RA_OF_ASC_NODE":61.7417,"ARG_OF_PERICENTER":182.2925,"MEAN_ANOMALY":177.8028,"EPHEMERIS_TYPE":0,"CLASSIFICATION_TYPE":"U","NORAD_CAT_ID":67796,"ELEMENT_SET_NO":999,"REV_AT_EPOCH":55656,"BSTAR":0.00016153,"MEAN_MOTION_DOT":8.338e-5,"MEAN_MOTION_DDOT":0}]
